{
    "links": {
        "self": "http://www.neowsapp.com/rest/v1/neo/3438957?api_key=iIulBulltgU6a56xZRHN4H3l9WmuAYTsLGpBGhQ2"
    },
    "id": "3438957",
    "neo_reference_id": "3438957",
    "name": "(2008 VG14)",
    "designation": "2008 VG14",
    "nasa_jpl_url": "http://ssd.jpl.nasa.gov/sbdb.cgi?sstr=3438957",
    "absolute_magnitude_h": 20.3,
    "estimated_diameter": {
        "kilometers": {
            "estimated_diameter_min": 0.2315021222,
            "estimated_diameter_max": 0.5176544822
        },
        "meters": {
            "estimated_diameter_min": 231.5021222103,
            "estimated_diameter_max": 517.6544821978
        },
        "miles": {
            "estimated_diameter_min": 0.1438487052,
            "estimated_diameter_max": 0.3216554833
        },
        "feet": {
            "estimated_diameter_min": 759.5214226325,
            "estimated_diameter_max": 1698.3415313737
        }
    },
    "is_potentially_hazardous_asteroid": false,
    "close_approach_data": [
        {
            "close_approach_date": "1975-10-08",
            "close_approach_date_full": "1975-Oct-08 22:40",
            "epoch_date_close_approach": 182040000000,
            "relative_velocity": {
                "kilometers_per_second": "7.4796462192",
                "kilometers_per_hour": "26926.7263892484",
                "miles_per_hour": "16731.2206278083"
            },
            "miss_distance": {
                "astronomical": "0.4262300129",
                "lunar": "165.8034750181",
                "kilometers": "63763102.059912523",
                "miles": "39620554.3905098974"
            },
            "orbiting_body": "Earth"
        },
        {
            "close_approach_date": "2008-10-15",
            "close_approach_date_full": "2008-Oct-15 19:58",
            "epoch_date_close_approach": 1224100680000,
            "relative_velocity": {
                "kilometers_per_second": "4.3781561256",
                "kilometers_per_hour": "15761.3620519907",
                "miles_per_hour": "9793.4974372494"
            },
            "miss_distance": {
                "astronomical": "0.3311485132",
                "lunar": "128.8167716348",
                "kilometers": "49539112.228386884",
                "miles": "30782176.9502076392"
            },
            "orbiting_body": "Earth"
        },
        {
            "close_approach_date": "2175-03-24",
            "close_approach_date_full": "2175-Mar-24 11:56",
            "epoch_date_close_approach": 6476327760000,
            "relative_velocity": {
                "kilometers_per_second": "9.0069241176",
                "kilometers_per_hour": "32424.926823321",
                "miles_per_hour": "20147.5885586352"
            },
            "miss_distance": {
                "astronomical": "0.0430575534",
                "lunar": "16.7493882726",
                "kilometers": "6441318.276051258",
                "miles": "4002449.5806850404"
            },
            "orbiting_body": "Mars"
        }
    ],
    "orbital_data": {
        "orbit_id": "14",
        "orbit_determination_date": "2017-04-06 09:02:13",
        "first_observation_date": "2008-11-07",
        "last_observation_date": "2008-12-30",
        "data_arc_in_days": 53,
        "observations_used": 69,
        "orbit_uncertainty": "5",
        "minimum_orbit_intersection": ".290284",
        "jupiter_tisserand_invariant": "3.052",
        "epoch_osculation": "2459000.5",
        "eccentricity": ".5612597097501647",
        "semi_major_axis": "2.803998068766841",
        "inclination": "10.07572372109829",
        "ascending_node_longitude": "259.83725672525",
        "orbital_period": "1715.003426719936",
        "perihelion_distance": "1.230226926550742",
        "perihelion_argument": "113.1829411801987",
        "aphelion_distance": "4.37776921098294",
        "perihelion_time": "2458180.807145440609",
        "mean_anomaly": "172.063462407046",
        "mean_motion": ".209912117020387",
        "equinox": "J2000",
        "orbit_class": {
            "orbit_class_type": "AMO",
            "orbit_class_description": "Near-Earth asteroid orbits similar to that of 1221 Amor",
            "orbit_class_range": "1.017 AU < q (perihelion) < 1.3 AU"
        }
    },
    "is_sentry_object": false
}